MEAN_MOTION;ECCENTRICITY;INCLINATION;RA_OF_ASC_NODE;ARG_OF_PERICENTER;MEAN_ANOMALY;BSTAR;MEAN_MOTION_DOT;MEAN_MOTION_DDOT;TYPE
14.21761613;0.000894;98.6948;85.0176;321.9741;38.0805;3.6099E-5;3.6E-7;0;Amateur
14.21761664;0.0008943;98.6948;85.0869;321.7732;38.281;3.8058E-5;4.0E-7;0;Amateur
14.21761775;0.0008903;98.6948;85.9885;318.9047;41.1459;3.87E-5;4.1E-7;0;Amateur
14.21761893;0.0008872;98.6948;86.6127;316.9107;43.1375;3.9424E-5;4.3E-7;0;Amateur
14.21761964;0.0008858;98.6948;87.0288;315.5715;44.4751;3.9602E-5;4.3E-7;0;Amateur
14.21761994;0.0008842;98.6948;87.3062;314.6899;45.3558;3.8783E-5;4.2E-7;0;Amateur
14.21762095;0.0008812;98.6948;87.8611;312.851;47.1926;3.8133E-5;4.0E-7;0;Amateur
14.21762129;0.0008808;98.6948;87.9998;312.4107;47.6324;3.7903E-5;4.0E-7;0;Amateur
14.21762231;0.0008784;98.6948;88.5546;310.6345;49.4068;3.6446E-5;3.6E-7;0;Amateur
14.21762399;0.0008728;98.6948;90.011;305.8693;54.1673;3.089E-5;2.4E-7;0;Amateur
14.21762497;0.0008709;98.6948;90.4964;304.311;55.7243;3.1207E-5;2.5E-7;0;Amateur
14.2176265;0.0008671;98.6948;91.5367;300.8827;59.1497;2.9856E-5;2.2E-7;0;Amateur
14.21762713;0.0008658;98.6948;91.9528;299.4758;60.5555;2.962E-5;2.1E-7;0;Amateur
14.21762805;0.0008643;98.6948;92.6465;297.237;62.7926;2.7603E-5;1.7E-7;0;Amateur
14.21762863;0.0008636;98.6948;92.9239;296.2987;63.7303;2.8187E-5;1.8E-7;0;Amateur
14.21762943;0.0008622;98.6948;93.6868;293.8767;66.1507;2.7241E-5;1.6E-7;0;Amateur
14.21763056;0.00086;98.6948;94.5884;290.8931;69.1326;2.8465E-5;1.9E-7;0;Amateur
14.21763112;0.0008587;98.6948;95.1432;289.0092;71.0155;2.937E-5;2.1E-7;0;Amateur
14.21763157;0.0008581;98.6948;95.4206;288.0843;71.9399;2.9921E-5;2.2E-7;0;Amateur
14.21763292;0.0008562;98.6948;96.461;284.5197;75.503;3.1448E-5;2.5E-7;0;Amateur
14.21763337;0.0008559;98.6947;96.8771;283.1906;76.8316;3.2123E-5;2.7E-7;0;Amateur
14.21763401;0.0008551;98.6947;97.3626;281.5468;78.475;3.1688E-5;2.6E-7;0;Amateur
14.21763454;0.000855;98.6947;97.848;280.0494;79.9718;3.2274E-5;2.7E-7;0;Amateur
14.21763474;0.000855;98.6947;97.9174;279.8123;80.2089;3.2557E-5;2.8E-7;0;Amateur
14.21763578;0.000854;98.6947;98.4722;277.8785;82.1423;3.4138E-5;3.1E-7;0;Amateur
14.2176361;0.0008541;98.6946;98.819;276.774;83.2466;3.4208E-5;3.1E-7;0;Amateur
14.21763702;0.0008536;98.6946;99.3738;274.9268;85.0935;3.5343E-5;3.4E-7;0;Amateur
14.21763845;0.0008537;98.6946;100.4141;271.5563;88.4637;3.6283E-5;3.6E-7;0;Amateur
14.21763865;0.0008538;98.6945;100.6221;270.8813;89.1386;3.6539E-5;3.7E-7;0;Amateur
14.2176406;0.000854;98.6944;101.7317;267.1758;92.8443;3.6579E-5;3.7E-7;0;Amateur
14.21764084;0.0008541;98.6944;101.8011;266.9457;93.0743;3.688E-5;3.7E-7;0;Amateur
14.21764251;0.0008546;98.6944;102.772;263.7395;96.2809;3.5556E-5;3.4E-7;0;Amateur
14.21764383;0.0008554;98.6944;103.743;260.5106;99.5105;3.3341E-5;3.0E-7;0;Amateur
14.217644;0.0008555;98.6944;103.8123;260.2804;99.7407;3.3318E-5;3.0E-7;0;Amateur
14.21764517;0.0008568;98.6944;104.7139;257.2451;102.7769;3.2135E-5;2.7E-7;0;Amateur
14.2176456;0.0008571;98.6944;104.9913;256.3177;103.7046;3.2126E-5;2.7E-7;0;Amateur
14.21764613;0.0008575;98.6944;105.2687;255.3875;104.6351;3.1766E-5;2.6E-7;0;Amateur
14.21764703;0.0008587;98.6944;105.7542;253.759;106.2643;3.2603E-5;2.8E-7;0;Amateur
14.21764805;0.0008596;98.6944;106.3091;251.8756;108.1485;3.1971E-5;2.7E-7;0;Amateur
14.21764809;0.0008597;98.6944;106.3784;251.66;108.3643;3.1873E-5;2.6E-7;0;Amateur
14.2176487;0.0008607;98.6944;106.7252;250.4999;109.5249;3.1819E-5;2.6E-7;0;Amateur
14.21764994;0.0008622;98.6944;107.4881;247.9498;112.0764;3.1202E-5;2.5E-7;0;Amateur
14.21765028;0.0008629;98.6944;107.6961;247.2638;112.7628;3.0853E-5;2.4E-7;0;Amateur
14.21765131;0.0008649;98.6944;108.459;244.7303;115.2979;3.0644E-5;2.4E-7;0;Amateur
14.21765177;0.0008659;98.6944;108.7365;243.8202;116.2086;3.0823E-5;2.4E-7;0;Amateur
14.21765324;0.0008694;98.6944;109.6381;240.7387;119.2921;3.3082E-5;2.9E-7;0;Amateur
14.21765462;0.0008726;98.6943;110.5396;237.7308;122.3024;3.4824E-5;3.3E-7;0;Amateur
14.21765493;0.0008732;98.6943;110.6784;237.2787;122.7549;3.4857E-5;3.3E-7;0;Amateur
14.21765687;0.0008754;98.6943;111.6493;234.2155;125.8209;3.818E-5;4.0E-7;0;Amateur
14.21765687;0.0008754;98.6943;111.6493;234.2155;125.8209;3.818E-5;4.0E-7;0;Amateur
14.21765871;0.0008784;98.6942;112.6203;231.1;128.9394;4.0402E-5;4.5E-7;0;Amateur
14.21765886;0.0008787;98.6942;112.6896;230.8723;129.1674;4.0341E-5;4.5E-7;0;Amateur
14.21766042;0.0008819;98.6941;113.5912;227.9765;132.0663;4.2335E-5;4.9E-7;0;Amateur
14.21766144;0.0008844;98.6941;114.2154;225.964;134.0809;4.226E-5;4.9E-7;0;Amateur
14.21766159;0.0008849;98.6941;114.3541;225.5329;134.5125;4.2578E-5;5.0E-7;0;Amateur
14.2176632;0.0008887;98.6941;115.1864;222.8542;137.1944;4.254E-5;5.0E-7;0;Amateur
14.21766577;0.0008947;98.694;116.5735;218.4638;141.5903;4.054E-5;4.5E-7;0;Amateur
14.21766745;0.0008997;98.6939;117.5444;215.3614;144.6968;3.8249E-5;4.0E-7;0;Amateur
14.21766847;0.0009036;98.6939;118.3073;212.958;147.1035;3.5795E-5;3.5E-7;0;Amateur
14.2176698;0.000908;98.6939;119.1395;210.3498;149.7154;3.3921E-5;3.1E-7;0;Amateur
14.21767006;0.0009101;98.6939;119.417;209.4732;150.5933;3.3418E-5;3.0E-7;0;Amateur
14.21767154;0.0009162;98.6939;120.3879;206.4341;153.6371;3.1016E-5;2.5E-7;0;Amateur
14.21767192;0.0009169;98.6939;120.5266;206.01;154.0618;3.1092E-5;2.5E-7;0;Amateur
14.21767345;0.0009222;98.6938;121.4976;202.9965;157.0801;2.9622E-5;2.1E-7;0;Amateur
14.21767348;0.0009224;98.6938;121.5669;202.7847;157.2923;2.8998E-5;2.0E-7;0;Amateur
14.21767457;0.0009276;98.6938;122.4685;200.016;160.0655;2.8354E-5;1.9E-7;0;Amateur
14.21767535;0.0009308;98.6938;123.0233;198.3106;161.7738;2.8795E-5;2.0E-7;0;Amateur
14.21767573;0.0009333;98.6938;123.4394;197.064;163.0225;2.9216E-5;2.1E-7;0;Amateur
14.21767678;0.0009371;98.6938;123.9942;195.3542;164.7352;3.1294E-5;2.5E-7;0;Amateur
14.21767752;0.0009412;98.6937;124.7571;193.0518;167.0417;3.1343E-5;2.5E-7;0;Amateur
14.21767976;0.0009489;98.6937;126.0054;189.303;170.7973;3.3739E-5;3.1E-7;0;Amateur
14.21768027;0.0009515;98.6936;126.4216;188.0737;172.0288;3.3947E-5;3.1E-7;0;Amateur
14.21768137;0.000957;98.6935;127.3231;185.3882;174.7194;3.4512E-5;3.2E-7;0;Amateur
14.2176815;0.0009574;98.6935;127.3925;185.1874;174.9206;3.4476E-5;3.2E-7;0;Amateur
14.21768234;0.0009615;98.6935;128.0166;183.3358;176.7757;3.4845E-5;3.3E-7;0;Amateur
14.2176828;0.0009646;98.6934;128.4327;182.127;177.9868;3.4539E-5;3.2E-7;0;Amateur
14.21768457;0.0009707;98.6933;129.4036;179.2884;180.8309;3.6425E-5;3.6E-7;0;Amateur
14.21768566;0.0009747;98.6933;129.9584;177.6596;182.4629;3.6458E-5;3.7E-7;0;Amateur
14.21768627;0.0009776;98.6933;130.3745;176.463;183.6618;3.5976E-5;3.5E-7;0;Amateur
14.21768756;0.0009827;98.6932;131.1373;174.2471;185.8821;3.5541E-5;3.5E-7;0;Amateur
14.21768796;0.0009842;98.6932;131.3454;173.6588;186.4716;3.5417E-5;3.4E-7;0;Amateur
14.21768899;0.0009887;98.6932;131.9695;171.8589;188.2751;3.4932E-5;3.3E-7;0;Amateur
14.21768956;0.0009916;98.6932;132.3856;170.6884;189.4479;3.4351E-5;3.2E-7;0;Amateur
14.21769031;0.0009937;98.6932;132.871;169.267;190.8721;3.3986E-5;3.1E-7;0;Amateur
14.21769054;0.0009952;98.6931;133.1484;168.483;191.6577;3.3583E-5;3.0E-7;0;Amateur
14.21769206;0.0009993;98.6931;133.9113;166.3012;193.8439;3.3628E-5;3.0E-7;0;Amateur
14.21769285;0.0010019;98.6931;134.3274;165.1354;195.012;3.3963E-5;3.1E-7;0;Amateur
14.21769399;0.0010067;98.6931;135.1596;162.7647;197.3874;3.1431E-5;2.6E-7;0;Amateur
14.21769427;0.0010074;98.6931;135.2983;162.3763;197.7766;3.1006E-5;2.5E-7;0;Amateur
14.21769548;0.0010111;98.6931;136.0611;160.1883;199.9689;3.0608E-5;2.4E-7;0;Amateur
14.21769606;0.0010128;98.6931;136.3385;159.4296;200.7291;3.0763E-5;2.4E-7;0;Amateur
14.21769704;0.0010176;98.693;137.24;156.8858;203.2779;2.9834E-5;2.2E-7;0;Amateur
14.21769775;0.0010215;98.693;137.7948;155.3512;204.8156;2.9152E-5;2.1E-7;0;Amateur
14.2176996;0.001028;98.693;138.9043;152.2843;207.8884;3.1638E-5;2.6E-7;0;Amateur
14.21770192;0.0010357;98.6929;140.222;148.6712;211.5085;3.3914E-5;3.1E-7;0;Amateur
14.21770192;0.0010357;98.6929;140.222;148.6712;211.5085;3.3914E-5;3.1E-7;0;Amateur
14.21770311;0.0010393;98.6929;140.8461;146.9489;213.234;3.5631E-5;3.5E-7;0;Amateur
14.21770385;0.0010408;98.6928;141.1928;146.0057;214.1789;3.8254E-5;4.1E-7;0;Amateur
14.21770402;0.0010413;98.6928;141.2622;145.8223;214.3626;3.8362E-5;4.1E-7;0;Amateur
14.2177051;0.0010439;98.6928;141.8169;144.2688;215.919;4.0885E-5;4.6E-7;0;Amateur
14.21770523;0.0010457;98.6928;142.1636;143.3389;216.8506;3.8982E-5;4.2E-7;0;Amateur
14.21770612;0.0010493;98.6928;142.7185;141.8627;218.3294;3.9035E-5;4.2E-7;0;Amateur
14.21770656;0.0010506;98.6927;143.0652;140.9176;219.2762;3.9752E-5;4.4E-7;0;Amateur
14.21770896;0.001055;98.6926;144.0361;138.2685;221.9299;4.3475E-5;5.2E-7;0;Amateur
14.21770896;0.001055;98.6926;144.0361;138.2685;221.9299;4.3475E-5;5.2E-7;0;Amateur
14.21771125;0.0010599;98.6926;145.215;135.0661;225.1376;4.0708E-5;4.6E-7;0;Amateur
14.21771265;0.0010639;98.6925;146.1165;132.652;227.5556;3.8393E-5;4.1E-7;0;Amateur
14.21771428;0.0010672;98.6925;146.6712;131.1958;229.0141;4.0646E-5;4.6E-7;0;Amateur
14.21771459;0.0010691;98.6924;147.0872;130.1317;230.0799;3.7562E-5;3.9E-7;0;Amateur
14.21771645;0.0010732;98.6924;147.9887;127.751;232.4641;3.7531E-5;3.9E-7;0;Amateur
14.21771817;0.0010768;98.6923;149.0289;124.9776;235.2414;3.3741E-5;3.1E-7;0;Amateur
14.21771827;0.0010769;98.6923;149.0982;124.7801;235.4392;3.3303E-5;3.0E-7;0;Amateur
14.21771932;0.0010793;98.6923;149.7223;123.1068;237.1147;3.1866E-5;2.7E-7;0;Amateur
14.2177196;0.0010804;98.6922;149.9997;122.4201;237.8023;3.0899E-5;2.4E-7;0;Amateur
14.21771975;0.0010812;98.6922;150.1384;122.0628;238.1601;2.9885E-5;2.2E-7;0;Amateur
14.21772064;0.0010841;98.6922;151.0399;119.6789;240.5469;2.8365E-5;1.9E-7;0;Amateur
14.21772141;0.0010856;98.6922;151.5946;118.1945;242.033;2.8482E-5;1.9E-7;0;Amateur
14.2177227;0.001088;98.6922;152.5654;115.599;244.6313;2.9261E-5;2.1E-7;0;Amateur
14.21772315;0.0010887;98.6921;153.0508;114.3089;245.9226;2.8555E-5;1.9E-7;0;Amateur
